start=new Date('2022-10-08T00:00:00.000Z').valueOf();
sats=[{"REV_AT_EPOCH":"3231","RA_OF_ASC_NODE":"227.6935","FILE":"3595509","ECCENTRICITY":"0.00013790","TIME_SYSTEM":"UTC","OBJECT_NAME":"STARLINK-3654","MEAN_ELEMENT_THEORY":"SGP4","ARG_OF_PERICENTER":"73.0606","COUNTRY_CODE":"US","LAUNCH_DATE":"2022-03-09","RCS_SIZE":"LARGE","REF_FRAME":"TEME","MEAN_MOTION":"15.08844026","MEAN_ANOMALY":"287.0537","TLE_LINE1":"1 52003U 22025AZ  22280.33307695  .00003735  00000-0  25262-3 0  9999","OBJECT_TYPE":"PAYLOAD","TLE_LINE2":"2 52003  53.2177 227.6935 0001379  73.0606 287.0537 15.08844026 32312","CLASSIFICATION_TYPE":"U","DECAY_DATE":null,"GP_ID":"214406391","EPOCH":"2022-10-07T07:59:37.848480","MEAN_MOTION_DDOT":"0.0000000000000","APOAPSIS":"540.687","SITE":"AFETR","ELEMENT_SET_NO":"999","BSTAR":"0.00025262000000","MEAN_MOTION_DOT":"0.00003735","PERIAPSIS":"538.779","NORAD_CAT_ID":"52003","INCLINATION":"53.2177","CENTER_NAME":"EARTH","EPHEMERIS_TYPE":"0","OBJECT_ID":"2022-025AZ","SEMIMAJOR_AXIS":"6917.868","PERIOD":"95.437"},{"TLE_LINE1":"1 52088U 22029A   22280.25039948  .00016048  00000-0  97950-4 0  9995","MEAN_ANOMALY":"252.8609","TLE_LINE2":"2 52088  53.1996 213.2300 0000740 107.2494 252.8609 15.77622109 33218","OBJECT_TYPE":"PAYLOAD","MEAN_ELEMENT_THEORY":"SGP4","OBJECT_NAME":"STARLINK-3537","ARG_OF_PERICENTER":"107.2494","COUNTRY_CODE":"US","FILE":"3595509","RA_OF_ASC_NODE":"213.2300","REV_AT_EPOCH":"3321","TIME_SYSTEM":"UTC","ECCENTRICITY":"0.00007400","RCS_SIZE":"LARGE","MEAN_MOTION":"15.77622109","REF_FRAME":"TEME","LAUNCH_DATE":"2022-03-19","CENTER_NAME":"EARTH","PERIOD":"91.277","OBJECT_ID":"2022-029A","EPHEMERIS_TYPE":"0","SEMIMAJOR_AXIS":"6715.317","MEAN_MOTION_DDOT":"0.0000000000000","APOAPSIS":"337.679","DECAY_DATE":null,"CLASSIFICATION_TYPE":"U","GP_ID":"214404902","EPOCH":"2022-10-07T06:00:34.515072","MEAN_MOTION_DOT":"0.00016048","INCLINATION":"53.1996","NORAD_CAT_ID":"52088","PERIAPSIS":"336.685","BSTAR":"0.00009795000000","ELEMENT_SET_NO":"999","SITE":"AFETR"},{"DECAY_DATE":null,"CLASSIFICATION_TYPE":"U","EPOCH":"2022-10-07T17:38:34.203840","GP_ID":"214436462","MEAN_MOTION_DDOT":"0.0000000000000","APOAPSIS":"541.038","SITE":"AFETR","ELEMENT_SET_NO":"999","BSTAR":"0.00019291000000","MEAN_MOTION_DOT":"0.00002784","NORAD_CAT_ID":"52089","PERIAPSIS":"538.428","INCLINATION":"53.2161","CENTER_NAME":"EARTH","EPHEMERIS_TYPE":"0","OBJECT_ID":"2022-029B","SEMIMAJOR_AXIS":"6917.868","PERIOD":"95.437","REV_AT_EPOCH":"3210","RA_OF_ASC_NODE":"295.8844","FILE":"3595773","ECCENTRICITY":"0.00018870","TIME_SYSTEM":"UTC","OBJECT_NAME":"STARLINK-3722","MEAN_ELEMENT_THEORY":"SGP4","ARG_OF_PERICENTER":"42.9109","COUNTRY_CODE":"US","LAUNCH_DATE":"2022-03-19","RCS_SIZE":"LARGE","REF_FRAME":"TEME","MEAN_MOTION":"15.08844041","MEAN_ANOMALY":"317.2030","TLE_LINE1":"1 52089U 22029B   22280.73511810  .00002784  00000-0  19291-3 0  9995","OBJECT_TYPE":"PAYLOAD","TLE_LINE2":"2 52089  53.2161 295.8844 0001887  42.9109 317.2030 15.08844041 32100"},{"CENTER_NAME":"EARTH","PERIOD":"95.437","EPHEMERIS_TYPE":"0","OBJECT_ID":"2022-029C","SEMIMAJOR_AXIS":"6917.855","APOAPSIS":"540.962","MEAN_MOTION_DDOT":"0.0000000000000","DECAY_DATE":null,"CLASSIFICATION_TYPE":"U","GP_ID":"214405898","EPOCH":"2022-10-07T11:01:07.642272","MEAN_MOTION_DOT":"0.00004295","PERIAPSIS":"538.478","NORAD_CAT_ID":"52090","INCLINATION":"53.2163","SITE":"AFETR","ELEMENT_SET_NO":"999","BSTAR":"0.00028774000000","MEAN_ANOMALY":"314.7041","TLE_LINE1":"1 52090U 22029C   22280.45911623  .00004295  00000-0  28774-3 0  9997","TLE_LINE2":"2 52090  53.2163 297.1304 0001796  45.4097 314.7041 15.08848323 32069","OBJECT_TYPE":"PAYLOAD","OBJECT_NAME":"STARLINK-3712","MEAN_ELEMENT_THEORY":"SGP4","ARG_OF_PERICENTER":"45.4097","COUNTRY_CODE":"US","REV_AT_EPOCH":"3206","RA_OF_ASC_NODE":"297.1304","FILE":"3595509","ECCENTRICITY":"0.00017960","TIME_SYSTEM":"UTC","RCS_SIZE":"LARGE","REF_FRAME":"TEME","MEAN_MOTION":"15.08848323","LAUNCH_DATE":"2022-03-19"},{"MEAN_ANOMALY":"331.8638","TLE_LINE1":"1 52091U 22029D   22280.46647884  .00003821  00000-0  25801-3 0  9996","TLE_LINE2":"2 52091  53.2168 297.0984 0002577  28.2494 331.8638 15.08842111 32067","OBJECT_TYPE":"PAYLOAD","COUNTRY_CODE":"US","ARG_OF_PERICENTER":"28.2494","OBJECT_NAME":"STARLINK-3713","MEAN_ELEMENT_THEORY":"SGP4","ECCENTRICITY":"0.00025770","TIME_SYSTEM":"UTC","RA_OF_ASC_NODE":"297.0984","REV_AT_EPOCH":"3206","FILE":"3595509","REF_FRAME":"TEME","MEAN_MOTION":"15.08842111","RCS_SIZE":"LARGE","LAUNCH_DATE":"2022-03-19","CENTER_NAME":"EARTH","PERIOD":"95.437","SEMIMAJOR_AXIS":"6917.874","EPHEMERIS_TYPE":"0","OBJECT_ID":"2022-029D","MEAN_MOTION_DDOT":"0.0000000000000","APOAPSIS":"541.522","GP_ID":"214405154","EPOCH":"2022-10-07T11:11:43.771776","DECAY_DATE":null,"CLASSIFICATION_TYPE":"U","PERIAPSIS":"537.956","NORAD_CAT_ID":"52091","INCLINATION":"53.2168","MEAN_MOTION_DOT":"0.00003821","SITE":"AFETR","BSTAR":"0.00025801000000","ELEMENT_SET_NO":"999"},{"TIME_SYSTEM":"UTC","ECCENTRICITY":"0.00020200","FILE":"3595736","RA_OF_ASC_NODE":"296.8206","REV_AT_EPOCH":"3207","ARG_OF_PERICENTER":"42.1385","COUNTRY_CODE":"US","MEAN_ELEMENT_THEORY":"SGP4","OBJECT_NAME":"STARLINK-3716","LAUNCH_DATE":"2022-03-19","MEAN_MOTION":"15.08845059","REF_FRAME":"TEME","RCS_SIZE":"LARGE","TLE_LINE1":"1 52092U 22029E   22280.52903507  .00001584  00000-0  11759-3 0  9992","MEAN_ANOMALY":"317.9763","OBJECT_TYPE":"PAYLOAD","TLE_LINE2":"2 52092  53.2182 296.8206 0002020  42.1385 317.9763 15.08845059 32074","EPOCH":"2022-10-07T12:41:48.630048","GP_ID":"214413088","DECAY_DATE":null,"CLASSIFICATION_TYPE":"U","MEAN_MOTION_DDOT":"0.0000000000000","APOAPSIS":"541.127","BSTAR":"0.00011759000000","ELEMENT_SET_NO":"999","SITE":"AFETR","INCLINATION":"53.2182","PERIAPSIS":"538.333","NORAD_CAT_ID":"52092","MEAN_MOTION_DOT":"0.00001584","CENTER_NAME":"EARTH","SEMIMAJOR_AXIS":"6917.865","EPHEMERIS_TYPE":"0","OBJECT_ID":"2022-029E","PERIOD":"95.437"},{"INCLINATION":"53.2153","NORAD_CAT_ID":"52093","PERIAPSIS":"538.398","MEAN_MOTION_DOT":"0.00001608","ELEMENT_SET_NO":"999","BSTAR":"0.00011912000000","SITE":"AFETR","APOAPSIS":"541.104","MEAN_MOTION_DDOT":"0.0000000000000","GP_ID":"214435962","EPOCH":"2022-10-07T18:47:27.862368","DECAY_DATE":null,"CLASSIFICATION_TYPE":"U","PERIOD":"95.438","SEMIMAJOR_AXIS":"6917.886","EPHEMERIS_TYPE":"0","OBJECT_ID":"2022-029F","CENTER_NAME":"EARTH","MEAN_MOTION":"15.08838051","REF_FRAME":"TEME","RCS_SIZE":"LARGE","LAUNCH_DATE":"2022-03-19","ARG_OF_PERICENTER":"47.6005","COUNTRY_CODE":"US","MEAN_ELEMENT_THEORY":"SGP4","OBJECT_NAME":"STARLINK-3673","TIME_SYSTEM":"UTC","ECCENTRICITY":"0.00019560","FILE":"3595773","REV_AT_EPOCH":"3211","RA_OF_ASC_NODE":"295.6933","TLE_LINE2":"2 52093  53.2153 295.6933 0001956  47.6005 312.5153 15.08838051 32116","OBJECT_TYPE":"PAYLOAD","TLE_LINE1":"1 52093U 22029F   22280.78296137  .00001608  00000-0  11912-3 0  9993","MEAN_ANOMALY":"312.5153"},{"LAUNCH_DATE":"2022-03-19","MEAN_MOTION":"15.08842219","REF_FRAME":"TEME","RCS_SIZE":"LARGE","TIME_SYSTEM":"UTC","ECCENTRICITY":"0.00017820","FILE":"3595773","REV_AT_EPOCH":"3211","RA_OF_ASC_NODE":"295.6662","ARG_OF_PERICENTER":"45.8839","COUNTRY_CODE":"US","MEAN_ELEMENT_THEORY":"SGP4","OBJECT_NAME":"STARLINK-3714","OBJECT_TYPE":"PAYLOAD","TLE_LINE2":"2 52094  53.2168 295.6662 0001782  45.8839 314.2299 15.08842219 32115","TLE_LINE1":"1 52094U 22029G   22280.78664464  .00004058  00000-0  27287-3 0  9990","MEAN_ANOMALY":"314.2299","BSTAR":"0.00027287000000","ELEMENT_SET_NO":"999","SITE":"AFETR","INCLINATION":"53.2168","NORAD_CAT_ID":"52094","PERIAPSIS":"538.506","MEAN_MOTION_DOT":"0.00004058","GP_ID":"214436212","EPOCH":"2022-10-07T18:52:46.096896","CLASSIFICATION_TYPE":"U","DECAY_DATE":null,"MEAN_MOTION_DDOT":"0.0000000000000","APOAPSIS":"540.971","SEMIMAJOR_AXIS":"6917.874","OBJECT_ID":"2022-029G","EPHEMERIS_TYPE":"0","PERIOD":"95.437","CENTER_NAME":"EARTH"},{"CENTER_NAME":"EARTH","SEMIMAJOR_AXIS":"6917.877","OBJECT_ID":"2022-029H","EPHEMERIS_TYPE":"0","PERIOD":"95.437","GP_ID":"214436964","EPOCH":"2022-10-07T18:36:51.684480","CLASSIFICATION_TYPE":"U","DECAY_DATE":null,"APOAPSIS":"540.897","MEAN_MOTION_DDOT":"0.0000000000000","SITE":"AFETR","BSTAR":"0.00013269000000","ELEMENT_SET_NO":"999","PERIAPSIS":"538.587","NORAD_CAT_ID":"52095","INCLINATION":"53.2149","MEAN_MOTION_DOT":"0.00001824","MEAN_ANOMALY":"309.1068","TLE_LINE1":"1 52095U 22029H   22280.77559820  .00001824  00000-0  13269-3 0  9992","OBJECT_TYPE":"PAYLOAD","TLE_LINE2":"2 52095  53.2149 295.7246 0001669  51.0073 309.1068 15.08841133 32118","ECCENTRICITY":"0.00016690","TIME_SYSTEM":"UTC","REV_AT_EPOCH":"3211","RA_OF_ASC_NODE":"295.7246","FILE":"3595773","COUNTRY_CODE":"US","ARG_OF_PERICENTER":"51.0073","OBJECT_NAME":"STARLINK-3701","MEAN_ELEMENT_THEORY":"SGP4","LAUNCH_DATE":"2022-03-19","REF_FRAME":"TEME","MEAN_MOTION":"15.08841133","RCS_SIZE":"LARGE"},{"APOAPSIS":"541.154","MEAN_MOTION_DDOT":"0.0000000000000","CLASSIFICATION_TYPE":"U","DECAY_DATE":null,"GP_ID":"214437715","EPOCH":"2022-10-07T18:06:23.566752","MEAN_MOTION_DOT":"0.00001751","NORAD_CAT_ID":"52096","PERIAPSIS":"538.321","INCLINATION":"53.2179","SITE":"AFETR","ELEMENT_SET_NO":"999","BSTAR":"0.00012809000000","CENTER_NAME":"EARTH","PERIOD":"95.437","EPHEMERIS_TYPE":"0","OBJECT_ID":"2022-029J","SEMIMAJOR_AXIS":"6917.872","OBJECT_NAME":"STARLINK-3717","MEAN_ELEMENT_THEORY":"SGP4","COUNTRY_CODE":"US","ARG_OF_PERICENTER":"43.0809","REV_AT_EPOCH":"3223","RA_OF_ASC_NODE":"285.8024","FILE":"3595773","ECCENTRICITY":"0.00020480","TIME_SYSTEM":"UTC","RCS_SIZE":"LARGE","REF_FRAME":"TEME","MEAN_MOTION":"15.08842584","LAUNCH_DATE":"2022-03-19","MEAN_ANOMALY":"317.0343","TLE_LINE1":"1 52096U 22029J   22280.75443943  .00001751  00000-0  12809-3 0  9997","TLE_LINE2":"2 52096  53.2179 285.8024 0002048  43.0809 317.0343 15.08842584 32234","OBJECT_TYPE":"PAYLOAD"}];
